<?xml version="1.0" encoding="UTF-8"?>
<ndm xmlns:xsi="http://www.w3.org/2001/XMLSchema-instance" xsi:noNamespaceSchemaLocation="https://sanaregistry.org/r/ndmxml_unqualified/ndmxml-2.0.0-master-2.0.xsd">
<omm id="CCSDS_OMM_VERS" version="2.0">
<header><CREATION_DATE/><ORIGINATOR/></header><body><segment><metadata><OBJECT_NAME>ORBCOMM FM05</OBJECT_NAME><OBJECT_ID>1997-084F</OBJECT_ID><CENTER_NAME>EARTH</CENTER_NAME><REF_FRAME>TEME</REF_FRAME><TIME_SYSTEM>UTC</TIME_SYSTEM><MEAN_ELEMENT_THEORY>SGP4</MEAN_ELEMENT_THEORY></metadata><data><meanElements><EPOCH>2024-07-20T13:47:49.371936</EPOCH><MEAN_MOTION>14.43100853</MEAN_MOTION><ECCENTRICITY>.0004029</ECCENTRICITY><INCLINATION>45.0138</INCLINATION><RA_OF_ASC_NODE>157.1283</RA_OF_ASC_NODE><ARG_OF_PERICENTER>347.2041</ARG_OF_PERICENTER><MEAN_ANOMALY>12.8706</MEAN_ANOMALY></meanElements><tleParameters><EPHEMERIS_TYPE>0</EPHEMERIS_TYPE><CLASSIFICATION_TYPE>U</CLASSIFICATION_TYPE><NORAD_CAT_ID>25117</NORAD_CAT_ID><ELEMENT_SET_NO>999</ELEMENT_SET_NO><REV_AT_EPOCH>39265</REV_AT_EPOCH><BSTAR>.11845E-2</BSTAR><MEAN_MOTION_DOT>.3871E-4</MEAN_MOTION_DOT><MEAN_MOTION_DDOT>0</MEAN_MOTION_DDOT></tleParameters></data></segment></body></omm>
<omm id="CCSDS_OMM_VERS" version="2.0">
<header><CREATION_DATE/><ORIGINATOR/></header><body><segment><metadata><OBJECT_NAME>ORBCOMM FM06</OBJECT_NAME><OBJECT_ID>1997-084G</OBJECT_ID><CENTER_NAME>EARTH</CENTER_NAME><REF_FRAME>TEME</REF_FRAME><TIME_SYSTEM>UTC</TIME_SYSTEM><MEAN_ELEMENT_THEORY>SGP4</MEAN_ELEMENT_THEORY></metadata><data><meanElements><EPOCH>2024-07-20T08:30:46.212192</EPOCH><MEAN_MOTION>14.43188652</MEAN_MOTION><ECCENTRICITY>.0003187</ECCENTRICITY><INCLINATION>45.0130</INCLINATION><RA_OF_ASC_NODE>158.3074</RA_OF_ASC_NODE><ARG_OF_PERICENTER>351.4803</ARG_OF_PERICENTER><MEAN_ANOMALY>174.3259</MEAN_ANOMALY></meanElements><tleParameters><EPHEMERIS_TYPE>0</EPHEMERIS_TYPE><CLASSIFICATION_TYPE>U</CLASSIFICATION_TYPE><NORAD_CAT_ID>25118</NORAD_CAT_ID><ELEMENT_SET_NO>999</ELEMENT_SET_NO><REV_AT_EPOCH>39353</REV_AT_EPOCH><BSTAR>.12217E-2</BSTAR><MEAN_MOTION_DOT>.4004E-4</MEAN_MOTION_DOT><MEAN_MOTION_DDOT>0</MEAN_MOTION_DDOT></tleParameters></data></segment></body></omm>
<omm id="CCSDS_OMM_VERS" version="2.0">
<header><CREATION_DATE/><ORIGINATOR/></header><body><segment><metadata><OBJECT_NAME>ORBCOMM FM07</OBJECT_NAME><OBJECT_ID>1997-084H</OBJECT_ID><CENTER_NAME>EARTH</CENTER_NAME><REF_FRAME>TEME</REF_FRAME><TIME_SYSTEM>UTC</TIME_SYSTEM><MEAN_ELEMENT_THEORY>SGP4</MEAN_ELEMENT_THEORY></metadata><data><meanElements><EPOCH>2024-07-20T07:38:45.151296</EPOCH><MEAN_MOTION>14.43086043</MEAN_MOTION><ECCENTRICITY>.0004821</ECCENTRICITY><INCLINATION>45.0125</INCLINATION><RA_OF_ASC_NODE>159.0634</RA_OF_ASC_NODE><ARG_OF_PERICENTER>340.6677</ARG_OF_PERICENTER><MEAN_ANOMALY>19.3990</MEAN_ANOMALY></meanElements><tleParameters><EPHEMERIS_TYPE>0</EPHEMERIS_TYPE><CLASSIFICATION_TYPE>U</CLASSIFICATION_TYPE><NORAD_CAT_ID>25119</NORAD_CAT_ID><ELEMENT_SET_NO>999</ELEMENT_SET_NO><REV_AT_EPOCH>39352</REV_AT_EPOCH><BSTAR>.10776E-2</BSTAR><MEAN_MOTION_DOT>.3507E-4</MEAN_MOTION_DOT><MEAN_MOTION_DDOT>0</MEAN_MOTION_DDOT></tleParameters></data></segment></body></omm>
<omm id="CCSDS_OMM_VERS" version="2.0">
<header><CREATION_DATE/><ORIGINATOR/></header><body><segment><metadata><OBJECT_NAME>ORBCOMM FM03</OBJECT_NAME><OBJECT_ID>1998-007B</OBJECT_ID><CENTER_NAME>EARTH</CENTER_NAME><REF_FRAME>TEME</REF_FRAME><TIME_SYSTEM>UTC</TIME_SYSTEM><MEAN_ELEMENT_THEORY>SGP4</MEAN_ELEMENT_THEORY></metadata><data><meanElements><EPOCH>2024-07-20T14:49:01.162848</EPOCH><MEAN_MOTION>14.32461025</MEAN_MOTION><ECCENTRICITY>.0045452</ECCENTRICITY><INCLINATION>107.9693</INCLINATION><RA_OF_ASC_NODE>175.3264</RA_OF_ASC_NODE><ARG_OF_PERICENTER>107.9207</ARG_OF_PERICENTER><MEAN_ANOMALY>252.6895</MEAN_ANOMALY></meanElements><tleParameters><EPHEMERIS_TYPE>0</EPHEMERIS_TYPE><CLASSIFICATION_TYPE>U</CLASSIFICATION_TYPE><NORAD_CAT_ID>25158</NORAD_CAT_ID><ELEMENT_SET_NO>999</ELEMENT_SET_NO><REV_AT_EPOCH>37652</REV_AT_EPOCH><BSTAR>.12684E-2</BSTAR><MEAN_MOTION_DOT>.3351E-4</MEAN_MOTION_DOT><MEAN_MOTION_DDOT>0</MEAN_MOTION_DDOT></tleParameters></data></segment></body></omm>
<omm id="CCSDS_OMM_VERS" version="2.0">
<header><CREATION_DATE/><ORIGINATOR/></header><body><segment><metadata><OBJECT_NAME>ORBCOMM FM04</OBJECT_NAME><OBJECT_ID>1998-007C</OBJECT_ID><CENTER_NAME>EARTH</CENTER_NAME><REF_FRAME>TEME</REF_FRAME><TIME_SYSTEM>UTC</TIME_SYSTEM><MEAN_ELEMENT_THEORY>SGP4</MEAN_ELEMENT_THEORY></metadata><data><meanElements><EPOCH>2024-07-20T14:13:27.291936</EPOCH><MEAN_MOTION>14.32733715</MEAN_MOTION><ECCENTRICITY>.0041064</ECCENTRICITY><INCLINATION>107.9684</INCLINATION><RA_OF_ASC_NODE>178.2630</RA_OF_ASC_NODE><ARG_OF_PERICENTER>105.6214</ARG_OF_PERICENTER><MEAN_ANOMALY>254.9462</MEAN_ANOMALY></meanElements><tleParameters><EPHEMERIS_TYPE>0</EPHEMERIS_TYPE><CLASSIFICATION_TYPE>U</CLASSIFICATION_TYPE><NORAD_CAT_ID>25159</NORAD_CAT_ID><ELEMENT_SET_NO>999</ELEMENT_SET_NO><REV_AT_EPOCH>37669</REV_AT_EPOCH><BSTAR>.11781E-2</BSTAR><MEAN_MOTION_DOT>.3113E-4</MEAN_MOTION_DOT><MEAN_MOTION_DDOT>0</MEAN_MOTION_DDOT></tleParameters></data></segment></body></omm>
<omm id="CCSDS_OMM_VERS" version="2.0">
<header><CREATION_DATE/><ORIGINATOR/></header><body><segment><metadata><OBJECT_NAME>ORBCOMM FM17</OBJECT_NAME><OBJECT_ID>1998-046A</OBJECT_ID><CENTER_NAME>EARTH</CENTER_NAME><REF_FRAME>TEME</REF_FRAME><TIME_SYSTEM>UTC</TIME_SYSTEM><MEAN_ELEMENT_THEORY>SGP4</MEAN_ELEMENT_THEORY></metadata><data><meanElements><EPOCH>2024-07-20T12:27:14.234400</EPOCH><MEAN_MOTION>14.33395721</MEAN_MOTION><ECCENTRICITY>.000125</ECCENTRICITY><INCLINATION>44.9952</INCLINATION><RA_OF_ASC_NODE>21.0698</RA_OF_ASC_NODE><ARG_OF_PERICENTER>348.7791</ARG_OF_PERICENTER><MEAN_ANOMALY>11.3027</MEAN_ANOMALY></meanElements><tleParameters><EPHEMERIS_TYPE>0</EPHEMERIS_TYPE><CLASSIFICATION_TYPE>U</CLASSIFICATION_TYPE><NORAD_CAT_ID>25413</NORAD_CAT_ID><ELEMENT_SET_NO>999</ELEMENT_SET_NO><REV_AT_EPOCH>35555</REV_AT_EPOCH><BSTAR>.8281E-3</BSTAR><MEAN_MOTION_DOT>.2165E-4</MEAN_MOTION_DOT><MEAN_MOTION_DDOT>0</MEAN_MOTION_DDOT></tleParameters></data></segment></body></omm>
<omm id="CCSDS_OMM_VERS" version="2.0">
<header><CREATION_DATE/><ORIGINATOR/></header><body><segment><metadata><OBJECT_NAME>ORBCOMM FM18</OBJECT_NAME><OBJECT_ID>1998-046B</OBJECT_ID><CENTER_NAME>EARTH</CENTER_NAME><REF_FRAME>TEME</REF_FRAME><TIME_SYSTEM>UTC</TIME_SYSTEM><MEAN_ELEMENT_THEORY>SGP4</MEAN_ELEMENT_THEORY></metadata><data><meanElements><EPOCH>2024-07-20T13:59:37.196160</EPOCH><MEAN_MOTION>14.36249534</MEAN_MOTION><ECCENTRICITY>.0001912</ECCENTRICITY><INCLINATION>44.9945</INCLINATION><RA_OF_ASC_NODE>306.3287</RA_OF_ASC_NODE><ARG_OF_PERICENTER>44.3855</ARG_OF_PERICENTER><MEAN_ANOMALY>315.7145</MEAN_ANOMALY></meanElements><tleParameters><EPHEMERIS_TYPE>0</EPHEMERIS_TYPE><CLASSIFICATION_TYPE>U</CLASSIFICATION_TYPE><NORAD_CAT_ID>25414</NORAD_CAT_ID><ELEMENT_SET_NO>999</ELEMENT_SET_NO><REV_AT_EPOCH>35653</REV_AT_EPOCH><BSTAR>.1047E-2</BSTAR><MEAN_MOTION_DOT>.2945E-4</MEAN_MOTION_DOT><MEAN_MOTION_DDOT>0</MEAN_MOTION_DDOT></tleParameters></data></segment></body></omm>
<omm id="CCSDS_OMM_VERS" version="2.0">
<header><CREATION_DATE/><ORIGINATOR/></header><body><segment><metadata><OBJECT_NAME>ORBCOMM FM19</OBJECT_NAME><OBJECT_ID>1998-046C</OBJECT_ID><CENTER_NAME>EARTH</CENTER_NAME><REF_FRAME>TEME</REF_FRAME><TIME_SYSTEM>UTC</TIME_SYSTEM><MEAN_ELEMENT_THEORY>SGP4</MEAN_ELEMENT_THEORY></metadata><data><meanElements><EPOCH>2024-07-20T13:26:43.338048</EPOCH><MEAN_MOTION>14.36081229</MEAN_MOTION><ECCENTRICITY>.0000945</ECCENTRICITY><INCLINATION>44.9955</INCLINATION><RA_OF_ASC_NODE>307.9445</RA_OF_ASC_NODE><ARG_OF_PERICENTER>8.5948</ARG_OF_PERICENTER><MEAN_ANOMALY>6.0278</MEAN_ANOMALY></meanElements><tleParameters><EPHEMERIS_TYPE>0</EPHEMERIS_TYPE><CLASSIFICATION_TYPE>U</CLASSIFICATION_TYPE><NORAD_CAT_ID>25415</NORAD_CAT_ID><ELEMENT_SET_NO>999</ELEMENT_SET_NO><REV_AT_EPOCH>35649</REV_AT_EPOCH><BSTAR>.10068E-2</BSTAR><MEAN_MOTION_DOT>.2816E-4</MEAN_MOTION_DOT><MEAN_MOTION_DDOT>0</MEAN_MOTION_DDOT></tleParameters></data></segment></body></omm>

</ndm>
