ORBCOMM FM05            
1 25117U 97084F   24202.57487699  .00003871  00000+0  11845-2 0  9998
2 25117  45.0138 157.1283 0004029 347.2041  12.8706 14.43100853392650
ORBCOMM FM06            
1 25118U 97084G   24202.35470153  .00004004  00000+0  12217-2 0  9995
2 25118  45.0130 158.3074 0003187 351.4803 174.3259 14.43188652393539
ORBCOMM FM07            
1 25119U 97084H   24202.31857814  .00003507  00000+0  10776-2 0  9990
2 25119  45.0125 159.0634 0004821 340.6677  19.3990 14.43086043393529
ORBCOMM FM03            
1 25158U 98007B   24202.61737457  .00003351  00000+0  12684-2 0  9999
2 25158 107.9693 175.3264 0045452 107.9207 252.6895 14.32461025376520
ORBCOMM FM04            
1 25159U 98007C   24202.59267699  .00003113  00000+0  11781-2 0  9996
2 25159 107.9684 178.2630 0041064 105.6214 254.9462 14.32733715376699
ORBCOMM FM17            
1 25413U 98046A   24202.51891475  .00002165  00000+0  82810-3 0  9997
2 25413  44.9952  21.0698 0001250 348.7791  11.3027 14.33395721355558
ORBCOMM FM18            
1 25414U 98046B   24202.58306940  .00002945  00000+0  10470-2 0  9991
2 25414  44.9945 306.3287 0001912  44.3855 315.7145 14.36249534356533
ORBCOMM FM19            
1 25415U 98046C   24202.56022382  .00002816  00000+0  10068-2 0  9995
2 25415  44.9955 307.9445 0000945   8.5948   6.0278 14.36081229356495
